0 FENGYUN 1C DEB
1 30295U 99025ZG  13281.46489844  .00000343  00000-0  16727-3 0  4649
2 30295 098.8428 273.1253 0096893 359.4464 163.4405 14.22120082349105
0 FENGYUN 1C DEB
1 30295U 99025ZG  13283.20327782  .00000366  00000-0  17715-3 0  4659
2 30295 098.8427 274.8688 0096803 354.4121 063.3369 14.22122873349354
0 FENGYUN 1C DEB
1 30295U 99025ZG  13286.80383339  .00000415  00000-0  19840-3 0  4676
2 30295 098.8426 278.4799 0096616 344.0014 136.9494 14.22125894349862
0 FENGYUN 1C DEB
1 30295U 99025ZG  13288.49354528  .00000546  00000-0  25469-3 0  4681
2 30295 098.8428 280.1743 0096528 339.1115 147.7151 14.22128434350104
0 FENGYUN 1C DEB
1 30295U 99025ZG  13289.67496479  .00000458  00000-0  21665-3 0  4691
2 30295 098.8430 281.3590 0096472 335.6874 076.2067 14.22129828350279
0 FENGYUN 1C DEB
1 30295U 99025ZG  13291.51774584  .00000424  00000-0  20231-3 0  4706
2 30295 098.8433 283.2069 0096383 330.3430 150.6719 14.22131782350537
0 FENGYUN 1C DEB
1 30295U 99025ZG  13292.78473529  .00000502  00000-0  23567-3 0  4714
2 30295 098.8436 284.4774 0096322 326.6759 157.2672 14.22132718350712
0 FENGYUN 1C DEB
1 30295U 99025ZG  13293.96725624  .00000499  00000-0  23470-3 0  4720
2 30295 098.8437 285.6635 0096278 323.2459 091.4191 14.22134307350881
0 FENGYUN 1C DEB
1 30295U 99025ZG  13295.46453336  .00000529  00000-0  24772-3 0  4736
2 30295 098.8437 287.1653 0096222 318.8835 197.0560 14.22136372351096
